#dP2018  8  9  0  0  0.00000000      96 __u+U IGS08 FIT  IAC
## 2013 345600.00000000   900.00000000 58339 0.0000000000000
+   86   C01C02C03C04C05C06C07C08C09C10C11C12C13C14E01E02E03
+        E04E05E07E08E09E11E12E14E18E19E24E26E30G01G02G03G05
+        G06G07G08G09G10G11G12G13G14G15G16G17G18G19G20G21G22
+        G23G24G25G26G27G28G29G30G31G32J01J02J03R01R02R03R04
+        R07R08R09R10R11R13R14R15R16R17R18R19R20R21R22R23R24
+        R26  0  0  0  0  0  0  0  0  0  0  0  0  0  0  0  0
++        12 12 13 12 12  8  8  8  7  8  7  8  8  7  7  7  7
++         7  7  7  7  7  7  7  7  7  7  7  7  7  3  3  3  3
++         3  3  3  3  3  3  3  3  3  3  3  3  3  3  3  3  3
++         3  3  3  3  3  3  3  3  3  3  9 11 10  5  5  5  5
++         5  5  5  5  5  5  5  5  5  5  5  7  5  5  5  5  5
++         8  0  0  0  0  0  0  0  0  0  0  0  0  0  0  0  0
%c M  cc GPS ccc cccc cccc cccc cccc ccccc ccccc ccccc ccccc
%c cc cc ccc ccc cccc cccc cccc cccc ccccc ccccc ccccc ccccc
%f  1.2500000  1.025000000  0.00000000000  0.000000000000000
%f  0.0000000  0.000000000  0.00000000000  0.000000000000000
%i    0    0    0    0      0      0      0      0         0
%i    0    0    0    0      0      0      0      0         0
/* INFORMATION & ANALYSIS CENTER (IAC)            FINAL DATA
/* S/V CLOCKS ARE ALIGNED TO GPS & GLONASS TIME RESPECTIVELY
/* USING THE BROADCAST EPHEMERIS                            
/* PCV:IGS14_2000 OL/AL:FES2004  NONE     YN ORB:CoN CLK:CoN
*  2018 08 09 14 45  0.00000000
PC01 -32346.934782  27058.688891   -801.097141    448.490375
PC02   4431.985657  41925.959001    -47.506778    -90.807475
PC03 -14754.819358  39471.563274  -1018.292214    331.220783
PC04 -39635.418814  14362.281705   -714.164440   -241.193710
PC05  21972.302660  35994.561622    134.453182   -447.568402
PC06 -14795.509050  21733.373445  33193.866631    214.735506
PC07 -22641.183597  35582.428905  -4499.606068     31.027784
PC08  -6167.751374  31371.261702 -27283.886677    476.267466
PC09   -344.135988  24976.209788  34182.875931    124.439192
PC10 -11114.087890  36979.373261 -17255.296903   -452.732930
PC11  -5785.275354  14961.787627 -22773.714593   -627.941206
PC12 -20603.477898  -1127.809745 -18782.333043    551.895983
PC13   2922.478504  38437.848758 -16786.857844   -218.380463
PC14 -17622.723525  16720.739067  13750.623063    259.377218
PE01   -142.931981  23262.053498 -18310.129021   -409.069890
PE02     98.140870 -23230.680186  18343.096858     22.816507
PE03  -8772.075315 -16534.913158 -22925.403267    -63.823326
PE04  26134.354842   8498.276934  11008.561899    -92.718641
PE05  13844.370394 -14928.527772 -21476.832393    214.274081
PE07 -28273.966071   4606.980437   7486.622489    -17.048483
PE08 -26235.520652  -8162.804065 -11018.294772   6526.952321
PE09  28230.347897  -4784.755204  -7461.271733   6710.863093
PE11  16983.020816  -2738.624602  24080.004695   3498.192347
PE12  19909.304858  17502.257779  13184.959676   4789.452274
PE14 -20103.690028 -14964.693868   4460.105673   6538.084566
PE18  14667.312755  22897.532526 -15542.871895   5995.903600
PE19   6679.582197  16681.602021  23531.875236    -13.346093
PE24  20764.766390 -13096.059986 -16548.137471   6556.191949
PE26  -4460.636950  20761.170463 -20622.615318   5613.294131
PE30 -14628.224624  -7173.325056  24707.850833   5609.710719
PG01  13525.419626  -8758.803450  20890.610207    -74.596588
PG02 -14283.535474 -14331.976133 -16760.514956     33.112295
PG03  22802.405041 -13029.590231   3689.949387    118.902415
PG05 -18305.090710  -3462.475459 -19120.111363     -3.424557
PG06  -6378.295973 -25119.554138  -5726.812205    378.187049
PG07   6524.358610 -22558.346198 -11711.958728    144.654700
PG08  24763.106224   4284.972334   8874.310383   -111.076471
PG09  10531.930014 -11918.225246 -21300.004914    511.562164
PG10  -2625.295771  18248.845531  19100.094777    187.278036
PG11  15938.115406  -4133.010630  20261.381238   -725.736981
PG12 -23679.614539   8096.377705   8425.456261    315.255424
PG13 -23355.993354 -12428.004401   2300.897219    -91.243739
PG14  16008.405793  18100.486565  11527.600989    -97.638871
PG15 -24270.142713     79.980506  11008.971240   -348.907645
PG16  16806.838265   5491.146154 -20111.093910     14.308437
PG17  -7431.779219 -17868.878743  18634.876945    -69.176893
PG18  15418.841311   1316.277833  21129.071761     43.670317
PG19 -15916.336975 -17851.590821  11094.304855   -413.249930
PG20 -10751.558306  21220.500313  11595.742061    513.863314
PG21  -2081.621470  25041.051741  -7860.713149   -355.156881
PG22  22891.551338  -7425.408083  11449.492383   -483.992470
PG23  20178.008192  -4332.670857 -16647.351819   -213.110022
PG24 -15049.380840   4464.734108  21286.630859    -53.730166
PG25 -19029.693063  17678.331436  -5100.574796   -629.023847
PG26   8181.651797  13006.607777 -21668.526767    -57.067821
PG27  23590.909423  12327.456657  -2223.066871    355.246834
PG28   6570.818453 -18277.021437  18760.943473    737.096698
PG29 -12359.084291   9593.877622 -21488.317292    399.173881
PG30    197.763597 -26396.438481  -1888.734795     39.869053
PG31   7028.501400  24134.683247  -7850.208151    101.858059
PG32   8582.913003  17701.435814  17930.345746   -455.788671
PJ01 -27881.579770  30608.270604  13374.455554   -148.233950
PJ02 -29043.782028  25727.600379  20931.047024    -10.694379
PJ03 -27383.598472  17267.049248 -22354.517691     -4.886248
PR01  -1280.197132 -11043.051955 -22951.960488     30.288341
PR02 -20297.783156  -3904.718770 -14872.254894    323.874040
PR03 -24935.798374   4932.492576   1898.340502    140.032704
PR04 -14598.209947  10971.429878  17821.815672    271.725479
PR07  24917.291903  -5062.572554  -2219.964226    -44.404304
PR08  15274.493853 -10795.202487 -17290.711621     21.866719
PR09   8848.552303   7493.128286 -22711.534252     22.376770
PR10  13485.965056 -10186.572021 -19085.522138     29.415201
PR11  10771.787929 -22798.212082  -3648.324698    -37.196218
PR13  -8626.498525  -7459.325944  22801.229506    -13.420979
PR14 -13637.563530  10161.960851  19035.233070     29.875273
PR15 -12172.866213  20915.984254   7929.211560    -14.399873
PR16  -1691.815986  22040.728199 -12654.169073     98.899879
PR17 -14917.386978  -3533.272090 -20397.504985    154.683455
PR18  -3814.039808  11578.328309 -22408.550030    206.146579
PR19   9046.201334  20606.905719 -12011.113105    -57.753289
PR20  17323.589800  17474.041138   6812.714708   -348.109083
PR21  14651.206762   3158.309143  20625.927431      2.902182
PR22   2255.158922 -13018.710901  21789.323981    -58.488868
PR23 -12006.023448 -20960.040125   8185.701484    170.916062
PR24 -17778.341799 -16494.205616  -7922.280567   -169.916469
PR26  17478.042311  17662.759011   5711.062712     39.890785
EOF
